[{"spaceTrack":{"CCSDS_OMM_VERS":"2.0","COMMENT":"GENERATED VIA SPACE-TRACK.ORG API","CREATION_DATE":"2020-09-19 22:46:10","ORIGINATOR":"18 SPCS","OBJECT_NAME":"STARLINK-1022","OBJECT_ID":"2019-074Q","CENTER_NAME":"EARTH","REF_FRAME":"TEME","TIME_SYSTEM":"UTC","MEAN_ELEMENT_THEORY":"SGP4","EPOCH":"2020-09-19 20:00:01.000224","MEAN_MOTION":15.05588467,"ECCENTRICITY":0.0001761,"INCLINATION":53.0015,"RA_OF_ASC_NODE":190.8498,"ARG_OF_PERICENTER":77.9049,"MEAN_ANOMALY":290.1298,"EPHEMERIS_TYPE":0,"CLASSIFICATION_TYPE":"U","NORAD_CAT_ID":44727,"ELEMENT_SET_NO":999,"REV_AT_EPOCH":4740,"BSTAR":0.00027772,"MEAN_MOTION_DOT":0.0000377,"MEAN_MOTION_DDOT":0,"SEMIMAJOR_AXIS":6927.836,"PERIOD":95.643,"APOAPSIS":550.921,"PERIAPSIS":548.481,"OBJECT_TYPE":"PAYLOAD","RCS_SIZE":"LARGE","COUNTRY_CODE":"US","LAUNCH_DATE":"2019-11-11","SITE":"AFETR","DECAY_DATE":null,"DECAYED":0,"FILE":2828420,"GP_ID":161736465,"TLE_LINE0":"0 STARLINK-1022","TLE_LINE1":"1 44727U 19074Q   20263.83334491  .00003770  00000-0  27772-3 0  9998","TLE_LINE2":"2 44727  53.0015 190.8498 0001761  77.9049 290.1298 15.05588467 47405"},"version":"v1.0","launch":"5eb87d39ffd86e000604b37d","longitude":79.90834895293382,"latitude":47.001750823066466,"height_km":553.805318483136,"velocity_kms":7.59115539448684,"id":"5eed7714096e590006985658"},{"spaceTrack":{"CCSDS_OMM_VERS":"2.0","COMMENT":"GENERATED VIA SPACE-TRACK.ORG API","CREATION_DATE":"2020-09-20 06:36:10","ORIGINATOR":"18 SPCS","OBJECT_NAME":"STARLINK-1008","OBJECT_ID":"2019-074B","CENTER_NAME":"EARTH","REF_FRAME":"TEME","TIME_SYSTEM":"UTC","MEAN_ELEMENT_THEORY":"SGP4","EPOCH":"2020-09-20 04:00:00.999936","MEAN_MOTION":15.05551918,"ECCENTRICITY":0.0002019,"INCLINATION":52.9975,"RA_OF_ASC_NODE":149.3585,"ARG_OF_PERICENTER":80.0243,"MEAN_ANOMALY":63.6253,"EPHEMERIS_TYPE":0,"CLASSIFICATION_TYPE":"U","NORAD_CAT_ID":44714,"ELEMENT_SET_NO":999,"REV_AT_EPOCH":4801,"BSTAR":0.0025578,"MEAN_MOTION_DOT":0.00037157,"MEAN_MOTION_DDOT":0,"SEMIMAJOR_AXIS":6927.949,"PERIOD":95.645,"APOAPSIS":551.212,"PERIAPSIS":548.415,"OBJECT_TYPE":"PAYLOAD","RCS_SIZE":"LARGE","COUNTRY_CODE":"US","LAUNCH_DATE":"2019-11-11","SITE":"AFETR","DECAY_DATE":null,"DECAYED":0,"FILE":2828810,"GP_ID":161766116,"TLE_LINE0":"0 STARLINK-1008","TLE_LINE1":"1 44714U 19074B   20264.16667824  .00037157  00000-0  25578-2 0  9997","TLE_LINE2":"2 44714  52.9975 149.3585 0002019  80.0243  63.6253 15.05551918 48011"},"version":"v1.0","launch":"5eb87d39ffd86e000604b37d","longitude":141.69282845790283,"latitude":-44.8854758827288,"height_km":566.1763802515025,"velocity_kms":7.577142221263457,"id":"5eed7714096e590006985659"},{"spaceTrack":{"CCSDS_OMM_VERS":"2.0","COMMENT":"GENERATED VIA SPACE-TRACK.ORG API","CREATION_DATE":"2020-09-20 06:36:10","ORIGINATOR":"18 SPCS","OBJECT_NAME":"STARLINK-1028","OBJECT_ID":"2019-074W","CENTER_NAME":"EARTH","REF_FRAME":"TEME","TIME_SYSTEM":"UTC","MEAN_ELEMENT_THEORY":"SGP4","EPOCH":"2020-09-20 04:00:00.999936","MEAN_MOTION":15.05570159,"ECCENTRICITY":0.000179,"INCLINATION":52.9994,"RA_OF_ASC_NODE":149.3619,"ARG_OF_PERICENTER":71.0829,"MEAN_ANOMALY":252.5204,"EPHEMERIS_TYPE":0,"CLASSIFICATION_TYPE":"U","NORAD_CAT_ID":44733,"ELEMENT_SET_NO":999,"REV_AT_EPOCH":4800,"BSTAR":0.0023334,"MEAN_MOTION_DOT":0.00033873,"MEAN_MOTION_DDOT":0,"SEMIMAJOR_AXIS":6927.893,"PERIOD":95.644,"APOAPSIS":550.998,"PERIAPSIS":548.517,"OBJECT_TYPE":"PAYLOAD","RCS_SIZE":"LARGE","COUNTRY_CODE":"US","LAUNCH_DATE":"2019-11-11","SITE":"AFETR","DECAY_DATE":null,"DECAYED":0,"FILE":2828815,"GP_ID":161765688,"TLE_LINE0":"0 STARLINK-1028","TLE_LINE1":"1 44733U 19074W   20264.16667824  .00033873  00000-0  23334-2 0  9997","TLE_LINE2":"2 44733  52.9994 149.3619 0001790  71.0829 252.5204 15.05570159 48008"},"version":"v1.0","launch":"5eb87d39ffd86e000604b37d","longitude":-38.304217753913,"latitude":44.89148425926321,"height_km":553.1018463671153,"velocity_kms":7.591435105388798,"id":"5eed7714096e59000698565a"},{"spaceTrack":{"CCSDS_OMM_VERS":"2.0","COMMENT":"GENERATED VIA SPACE-TRACK.ORG API","CREATION_DATE":"2020-09-20 02:31:57","ORIGINATOR":"18 SPCS","OBJECT_NAME":"STARLINK-1012","OBJECT_ID":"2019-074F","CENTER_NAME":"EARTH","REF_FRAME":"TEME","TIME_SYSTEM":"UTC","MEAN_ELEMENT_THEORY":"SGP4","EPOCH":"2020-09-19 20:00:01.000224","MEAN_MOTION":15.0560356,"ECCENTRICITY":0.0001644,"INCLINATION":52.9991,"RA_OF_ASC_NODE":150.8525,"ARG_OF_PERICENTER":81.4265,"MEAN_ANOMALY":180.4717,"EPHEMERIS_TYPE":0,"CLASSIFICATION_TYPE":"U","NORAD_CAT_ID":44718,"ELEMENT_SET_NO":999,"REV_AT_EPOCH":180,"BSTAR":-0.0019571,"MEAN_MOTION_DOT":-0.00028698,"MEAN_MOTION_DDOT":0,"SEMIMAJOR_AXIS":6927.79,"PERIOD":95.642,"APOAPSIS":550.794,"PERIAPSIS":548.516,"OBJECT_TYPE":"PAYLOAD","RCS_SIZE":"LARGE","COUNTRY_CODE":"US","LAUNCH_DATE":"2019-11-11","SITE":"AFETR","DECAY_DATE":null,"DECAYED":0,"FILE":2828634,"GP_ID":161759953,"TLE_LINE0":"0 STARLINK-1012","TLE_LINE1":"1 44718U 19074F   20263.83334491 -.00028698 +00000-0 -19571-2 0  9993","TLE_LINE2":"2 44718 052.9991 150.8525 0001644 081.4265 180.4717 15.05603560001806"},"version":"v1.0","launch":"5eb87d39ffd86e000604b37d","longitude":-82.02024898869163,"latitude":6.080566684998776,"height_km":549.8125761703959,"velocity_kms":7.588808672556426,"id":"5eed7714096e59000698565b"},{"spaceTrack":{"CCSDS_OMM_VERS":"2.0","COMMENT":"GENERATED VIA SPACE-TRACK.ORG API","CREATION_DATE":"2020-09-19 06:26:10","ORIGINATOR":"18 SPCS","OBJECT_NAME":"STARLINK-1037","OBJECT_ID":"2019-074AF","CENTER_NAME":"EARTH","REF_FRAME":"TEME","TIME_SYSTEM":"UTC","MEAN_ELEMENT_THEORY":"SGP4","EPOCH":"2020-09-19 02:54:09.811296","MEAN_MOTION":15.06254129,"ECCENTRICITY":0.0001665,"INCLINATION":52.9992,"RA_OF_ASC_NODE":173.4962,"ARG_OF_PERICENTER":38.3625,"MEAN_ANOMALY":321.7481,"EPHEMERIS_TYPE":0,"CLASSIFICATION_TYPE":"U","NORAD_CAT_ID":44742,"ELEMENT_SET_NO":999,"REV_AT_EPOCH":4757,"BSTAR":0.00010724,"MEAN_MOTION_DOT":0.0000131,"MEAN_MOTION_DDOT":0,"SEMIMAJOR_AXIS":6925.795,"PERIOD":95.601,"APOAPSIS":548.813,"PERIAPSIS":546.507,"OBJECT_TYPE":"PAYLOAD","RCS_SIZE":"LARGE","COUNTRY_CODE":"US","LAUNCH_DATE":"2019-11-11","SITE":"AFETR","DECAY_DATE":null,"DECAYED":0,"FILE":2827782,"GP_ID":161702505,"TLE_LINE0":"0 STARLINK-1037","TLE_LINE1":"1 44742U 19074AF  20263.12094689  .00001310  00000-0  10724-3 0  9996","TLE_LINE2":"2 44742  52.9992 173.4962 0001665  38.3625 321.7481 15.06254129 47570"},"version":"v1.0","launch":"5eb87d39ffd86e000604b37d","longitude":-59.21016490206217,"latitude":10.470437131045022,"height_km":546.7645435601407,"velocity_kms":7.591253190671985,"id":"5eed7714096e59000698565c"},{"spaceTrack":{"CCSDS_OMM_VERS":"2.0","COMMENT":"GENERATED VIA SPACE-TRACK.ORG API","CREATION_DATE":"2020-09-20 06:36:10","ORIGINATOR":"18 SPCS","OBJECT_NAME":"STARLINK-1029","OBJECT_ID":"2019-074X","CENTER_NAME":"EARTH","REF_FRAME":"TEME","TIME_SYSTEM":"UTC","MEAN_ELEMENT_THEORY":"SGP4","EPOCH":"2020-09-20 04:00:00.999936","MEAN_MOTION":15.52495301,"ECCENTRICITY":0.0001201,"INCLINATION":52.9984,"RA_OF_ASC_NODE":73.8837,"ARG_OF_PERICENTER":63.286,"MEAN_ANOMALY":269.0857,"EPHEMERIS_TYPE":0,"CLASSIFICATION_TYPE":"U","NORAD_CAT_ID":44734,"ELEMENT_SET_NO":999,"REV_AT_EPOCH":4906,"BSTAR":-0.014489,"MEAN_MOTION_DOT":-0.00826943,"MEAN_MOTION_DDOT":0,"SEMIMAJOR_AXIS":6787.58,"PERIOD":92.753,"APOAPSIS":410.26,"PERIAPSIS":408.63,"OBJECT_TYPE":"PAYLOAD","RCS_SIZE":"LARGE","COUNTRY_CODE":"US","LAUNCH_DATE":"2019-11-11","SITE":"AFETR","DECAY_DATE":null,"DECAYED":0,"FILE":2828818,"GP_ID":161765715,"TLE_LINE0":"0 STARLINK-1029","TLE_LINE1":"1 44734U 19074X   20264.16667824 -.00826943  00000-0 -14489-1 0  9998","TLE_LINE2":"2 44734  52.9984  73.8837 0001201  63.2860 269.0857 15.52495301 49067"},"version":"v1.0","launch":"5eb87d39ffd86e000604b37d","longitude":-0.2843132322903238,"latitude":22.458177824944382,"height_km":412.54189931825204,"velocity_kms":7.6667149597329365,"id":"5eed7714096e59000698565d"},{"spaceTrack":{"CCSDS_OMM_VERS":"2.0","COMMENT":"GENERATED VIA SPACE-TRACK.ORG API","CREATION_DATE":"2020-09-19 22:46:10","ORIGINATOR":"18 SPCS","OBJECT_NAME":"STARLINK-1014","OBJECT_ID":"2019-074H","CENTER_NAME":"EARTH","REF_FRAME":"TEME","TIME_SYSTEM":"UTC","MEAN_ELEMENT_THEORY":"SGP4","EPOCH":"2020-09-19 20:00:01.000224","MEAN_MOTION":15.05616063,"ECCENTRICITY":0.0005366,"INCLINATION":53.0004,"RA_OF_ASC_NODE":150.8543,"ARG_OF_PERICENTER":29.858,"MEAN_ANOMALY":87.9828,"EPHEMERIS_TYPE":0,"CLASSIFICATION_TYPE":"U","NORAD_CAT_ID":44720,"ELEMENT_SET_NO":999,"REV_AT_EPOCH":4795,"BSTAR":-0.0022412,"MEAN_MOTION_DOT":-0.00032827,"MEAN_MOTION_DDOT":0,"SEMIMAJOR_AXIS":6927.752,"PERIOD":95.641,"APOAPSIS":553.334,"PERIAPSIS":545.899,"OBJECT_TYPE":"PAYLOAD","RCS_SIZE":"LARGE","COUNTRY_CODE":"US","LAUNCH_DATE":"2019-11-11","SITE":"AFETR","DECAY_DATE":null,"DECAYED":0,"FILE":2828421,"GP_ID":161736441,"TLE_LINE0":"0 STARLINK-1014","TLE_LINE1":"1 44720U 19074H   20263.83334491 -.00032827  00000-0 -22412-2 0  9993","TLE_LINE2":"2 44720  53.0004 150.8543 0005366  29.8580  87.9828 15.05616063 47959"},"version":"v1.0","launch":"5eb87d39ffd86e000604b37d","longitude":123.34593100247807,"latitude":-33.6657095944585,"height_km":563.9841970283214,"velocity_kms":7.577115324261198,"id":"5eed7714096e59000698565e"}]